NORAD_CAT_ID,OBJECT_NAME,OBJECT_TYPE,EPOCH,MEAN_MOTION,ECCENTRICITY,INCLINATION,RA_OF_ASC_NODE,ARG_OF_PERICENTER,MEAN_ANOMALY,BSTAR,MEAN_MOTION_DOT,MEAN_MOTION_DDOT,TLE_LINE0,TLE_LINE1,TLE_LINE2,SEMIMAJOR_AXIS,PERIOD,APOGEE,PERIGEE,DECAYED
54804.0,STARLINK-5422,PAYLOAD,2023-02-18 22:00:00,15.46399094,0.000131,53.2153,355.7311,84.662,332.7855,-0.020839,-0.00959023,0.0,0 STARLINK-5422,1 54804U 22175AY  23049.91667824 -.00959023  00000-0 -20839-1 0  9992,2 54804  53.2153 355.7311 0001310  84.6620 332.7855 15.46399094  9640,6805.407,93.12,428.164,426.381,0.0
54804.0,STARLINK-5422,PAYLOAD,2023-02-19 14:00:01,15.45051187,0.000135,53.2151,352.5648,83.5457,85.7257,-0.020194,-0.00892633,0.0,0 STARLINK-5422,1 54804U 22175AY  23050.58334491 -.00892633  00000-0 -20194-1 0  9995,2 54804  53.2151 352.5648 0001350  83.5457  85.7257 15.45051187  9745,6809.365,93.201,432.149,430.31,0.0
54804.0,STARLINK-5422,PAYLOAD,2023-02-20 06:00:00,15.43747265,0.0001358,53.2147,349.4067,82.7084,195.2336,-0.02071,-0.0087681,0.0,0 STARLINK-5422,1 54804U 22175AY  23051.25001157 -.00876810  00000-0 -20710-1 0  9993,2 54804  53.2147 349.4067 0001358  82.7084 195.2336 15.43747265  9859,6813.198,93.28,435.989,434.138,0.0
54804.0,STARLINK-5422,PAYLOAD,2023-02-20 14:00:01,15.43095614,0.000121,53.2146,347.8272,93.1726,237.9393,-0.021463,-0.00887837,0.0,0 STARLINK-5422,1 54804U 22175AY  23051.58334491 -.00887837  00000-0 -21463-1 0  9996,2 54804  53.2146 347.8272 0001210  93.1726 237.9393 15.43095614  1307,6815.116,93.319,437.806,436.157,0.0
54804.0,STARLINK-5422,PAYLOAD,2023-02-20 22:00:01,15.42486321,0.0001211,53.2146,346.2514,93.1005,290.4417,-0.023623,-0.00951483,0.0,0 STARLINK-5422,1 54804U 22175AY  23051.91668981 -.00951483  00000-0 -23623-1 0  9996,2 54804  53.2146 346.2514 0001211  93.1005 290.4417 15.42486321  9958,6816.911,93.356,439.602,437.951,0.0
54804.0,STARLINK-5422,PAYLOAD,2023-02-21 14:00:01,15.41139093,0.0001304,53.2144,343.1035,90.8802,35.0318,-0.022709,-0.00880143,0.0,0 STARLINK-5422,1 54804U 22175AY  23052.58334491 -.00880143  00000-0 -22709-1 0  9994,2 54804  53.2144 343.1035 0001304  90.8802  35.0318 15.41139093 10058,6820.883,93.437,443.638,441.859,0.0
54804.0,STARLINK-5422,PAYLOAD,2023-02-22 00:00:00,15.40345433,0.000134,53.2145,341.1404,94.4123,183.9149,-0.024418,-0.00918312,0.0,0 STARLINK-5422,1 54804U 22175AY  23053.00001157 -.00918312  00000-0 -24418-1 0  9991,2 54804  53.2145 341.1404 0001340  94.4123 183.9149 15.40345433  1302,6823.226,93.486,446.005,444.177,0.0
54804.0,STARLINK-5422,PAYLOAD,2023-02-22 06:00:00,15.39842449,0.0001413,53.2145,339.964,87.0624,138.1309,-0.023655,-0.00878241,0.0,0 STARLINK-5422,1 54804U 22175AY  23053.25001157 -.00878241  00000-0 -23655-1 0  9996,2 54804  53.2145 339.9640 0001413  87.0624 138.1309 15.39842449 10154,6824.712,93.516,447.541,445.612,0.0
54804.0,STARLINK-5422,PAYLOAD,2023-02-22 14:00:01,15.3918154,0.0001261,53.2147,338.3938,98.0936,175.5791,-0.024016,-0.00872785,0.0,0 STARLINK-5422,1 54804U 22175AY  23053.58334491 -.00872785  00000-0 -24016-1 0  9991,2 54804  53.2147 338.3938 0001261  98.0936 175.5791 15.39181540  1303,6826.665,93.556,449.391,447.669,0.0
54804.0,STARLINK-5422,PAYLOAD,2023-02-22 22:00:00,15.38572014,0.0001263,53.2148,336.8275,97.7679,223.5777,-0.026616,-0.00941797,0.0,0 STARLINK-5422,1 54804U 22175AY  23053.91667824 -.00941797  00000-0 -26616-1 0  9995,2 54804  53.2148 336.8275 0001263  97.7679 223.5777 15.38572014 10265,6828.468,93.593,451.196,449.471,0.0
54804.0,STARLINK-5422,PAYLOAD,2023-02-23 14:00:01,15.3723003,0.0001222,53.2149,333.6978,91.8905,322.499,-0.025651,-0.0087428,0.0,0 STARLINK-5422,1 54804U 22175AY  23054.58334491 -.00874280  00000-0 -25651-1 0  9990,2 54804  53.2149 333.6978 0001222  91.8905 322.4990 15.37230030  1302,6832.442,93.675,455.142,453.472,0.0
54804.0,STARLINK-5422,PAYLOAD,2023-02-23 22:00:00,15.36617461,0.0001347,53.2149,332.1364,88.1483,11.5694,-0.028365,-0.00941615,0.0,0 STARLINK-5422,1 54804U 22175AY  23054.91667824 -.00941615  00000-0 -28365-1 0  9998,2 54804  53.2149 332.1364 0001347  88.1483  11.5694 15.36617461  1306,6834.257,93.712,457.043,455.202,0.0
54804.0,STARLINK-5422,PAYLOAD,2023-02-24 00:00:00,15.36436049,0.0001474,53.2148,331.7466,88.0443,112.8929,-0.027617,-0.00913871,0.0,0 STARLINK-5422,1 54804U 22175AY  23055.00001157 -.00913871  00000-0 -27617-1 0  9992,2 54804  53.2148 331.7466 0001474  88.0443 112.8929 15.36436049 10429,6834.795,93.723,457.668,455.653,0.0
54804.0,STARLINK-5422,PAYLOAD,2023-02-24 14:00:01,15.35280433,0.0001448,53.2146,329.0156,93.504,94.5602,-0.027424,-0.00877318,0.0,0 STARLINK-5422,1 54804U 22175AY  23055.58334491 -.00877318  00000-0 -27424-1 0  9996,2 54804  53.2146 329.0156 0001448  93.5040  94.5602 15.35280433  1302,6838.225,93.794,461.08,459.099,0.0
54804.0,STARLINK-5422,PAYLOAD,2023-02-24 22:00:00,15.34660422,0.0001449,53.2147,327.4591,92.6934,138.3557,-0.029961,-0.00934412,0.0,0 STARLINK-5422,1 54804U 22175AY  23055.91667824 -.00934412  00000-0 -29961-1 0  9999,2 54804  53.2147 327.4591 0001449  92.6934 138.3557 15.34660422  1306,6840.066,93.832,462.922,460.94,0.0
54804.0,STARLINK-5422,PAYLOAD,2023-02-25 06:00:00,15.34003394,0.0001308,53.2142,325.9038,87.3756,185.8834,-0.029761,-0.00910916,0.0,0 STARLINK-5422,1 54804U 22175AY  23056.25001157 -.00910916  00000-0 -29761-1 0  9999,2 54804  53.2142 325.9038 0001308  87.3756 185.8834 15.34003394 10626,6842.019,93.872,464.779,462.989,0.0
54804.0,STARLINK-5422,PAYLOAD,2023-02-25 14:00:01,15.33322441,0.0001263,53.2142,324.3473,97.961,216.742,-0.028903,-0.00869179,0.0,0 STARLINK-5422,1 54804U 22175AY  23056.58334491 -.00869179  00000-0 -28903-1 0  9996,2 54804  53.2142 324.3473 0001263  97.9610 216.7420 15.33322441  1304,6844.045,93.914,466.774,465.045,0.0
54804.0,STARLINK-5422,PAYLOAD,2023-02-25 22:00:00,15.32708694,0.00013,53.2141,322.7955,90.7032,264.6354,-0.03198,-0.00936987,0.0,0 STARLINK-5422,1 54804U 22175AY  23056.91667824 -.00936987  00000-0 -31980-1 0  9993,2 54804  53.2141 322.7955 0001300  90.7032 264.6354 15.32708694  1306,6845.872,93.951,468.627,466.847,0.0
54804.0,STARLINK-5422,PAYLOAD,2023-02-26 06:00:00,15.32053253,0.0001244,53.2136,321.2448,79.9005,315.3009,-0.031871,-0.00916477,0.0,0 STARLINK-5422,1 54804U 22175AY  23057.25001157 -.00916477  00000-0 -31871-1 0  9993,2 54804  53.2136 321.2448 0001244  79.9005 315.3009 15.32053253 10773,6847.824,93.992,470.541,468.837,0.0
54804.0,STARLINK-5422,PAYLOAD,2023-02-26 14:00:01,15.31373723,0.0001249,53.2136,319.693,92.0563,342.2409,-0.030961,-0.00875011,0.0,0 STARLINK-5422,1 54804U 22175AY  23057.58334491 -.00875011  00000-0 -30961-1 0  9996,2 54804  53.2136 319.6930 0001249  92.0563 342.2409 15.31373723  1308,6849.85,94.033,472.57,470.859,0.0
54804.0,STARLINK-5422,PAYLOAD,2023-02-27 00:00:00,15.30572065,0.000147,53.2134,317.7594,89.2609,122.7858,-0.032793,-0.00901524,0.0,0 STARLINK-5422,1 54804U 22175AY  23058.00001157 -.00901524  00000-0 -32793-1 0  9998,2 54804  53.2134 317.7594 0001470  89.2609 122.7858 15.30572065  1304,6852.241,94.082,475.114,473.099,0.0
54804.0,STARLINK-5422,PAYLOAD,2023-02-27 06:00:00,15.30105799,0.000144,53.213,316.5994,82.9979,67.1047,-0.03427,-0.00938004,0.0,0 STARLINK-5422,1 54804U 22175AY  23058.25001157 -.00938004  00000-0 -34270-1 0  9990,2 54804  53.2130 316.5994 0001440  82.9979  67.1047 15.30105799 10924,6853.633,94.111,476.485,474.511,0.0
54804.0,STARLINK-5422,PAYLOAD,2023-02-27 14:00:01,15.29425633,0.0001388,53.2129,315.0524,97.6899,89.161,-0.033179,-0.00881851,0.0,0 STARLINK-5422,1 54804U 22175AY  23058.58334491 -.00881851  00000-0 -33179-1 0  9990,2 54804  53.2129 315.0524 0001388  97.6899  89.1610 15.29425633  1302,6855.665,94.153,478.482,476.579,0.0
54804.0,STARLINK-5422,PAYLOAD,2023-02-27 22:00:01,15.28794174,0.000146,53.2129,313.5101,94.59,128.2742,-0.03563,-0.00936504,0.0,0 STARLINK-5422,1 54804U 22175AY  23058.91668981 -.00936504  00000-0 -35630-1 0  9991,2 54804  53.2129 313.5101 0001460  94.5900 128.2742 15.28794174  1305,6857.553,94.192,480.419,478.417,0.0
54804.0,STARLINK-5422,PAYLOAD,2023-02-28 14:00:01,15.27474453,0.0001275,53.2124,310.4258,106.9293,185.4349,-0.035312,-0.00883598,0.0,0 STARLINK-5422,1 54804U 22175AY  23059.58334491 -.00883598  00000-0 -35312-1 0  9992,2 54804  53.2124 310.4258 0001275 106.9293 185.4349 15.27474453 11130,6861.502,94.273,484.242,482.492,0.0
54804.0,STARLINK-5422,PAYLOAD,2023-02-28 22:00:00,15.26838023,0.0001291,53.2124,308.8881,98.9944,226.9746,-0.037543,-0.00929798,0.0,0 STARLINK-5422,1 54804U 22175AY  23059.91667824 -.00929798  00000-0 -37543-1 0  9999,2 54804  53.2124 308.8881 0001291  98.9944 226.9746 15.26838023  1300,6863.409,94.313,486.16,484.388,0.0
54804.0,STARLINK-5422,PAYLOAD,2023-03-01 06:00:00,15.26213359,0.0001199,53.212,307.3505,91.7138,267.0687,-0.039771,-0.00963682,0.0,0 STARLINK-5422,1 54804U 22175AY  23060.25001157 -.00963682  00000-0 -39771-1 0  9994,2 54804  53.2120 307.3505 0001199  91.7138 267.0687 15.26213359 11238,6865.281,94.351,487.97,486.323,0.0
54804.0,STARLINK-5422,PAYLOAD,2023-03-01 22:00:00,15.24886487,0.0001293,53.212,304.2798,82.7673,339.3288,-0.039925,-0.00931829,0.0,0 STARLINK-5422,1 54804U 22175AY  23060.91667824 -.00931829  00000-0 -39925-1 0  9995,2 54804  53.2120 304.2798 0001293  82.7673 339.3288 15.24886487 11334,6869.263,94.433,492.017,490.24,0.0
54804.0,STARLINK-5422,PAYLOAD,2023-03-02 20:00:01,15.23107621,0.0001283,53.2117,300.0672,87.2428,326.783,-0.042975,-0.00949509,0.0,0 STARLINK-5422,1 54804U 22175AY  23061.83334491 -.00949509  00000-0 -42975-1 0  9991,2 54804  53.2117 300.0672 0001283  87.2428 326.7830 15.23107621  1306,6874.611,94.544,497.358,495.594,0.0
54804.0,STARLINK-5422,PAYLOAD,2023-03-03 10:00:00,15.21938188,0.000122,53.2113,297.3919,94.3647,278.7296,-0.041904,-0.00898084,0.0,0 STARLINK-5422,1 54804U 22175AY  23062.41667824 -.00898084  00000-0 -41904-1 0  9997,2 54804  53.2113 297.3919 0001220  94.3647 278.7296 15.21938188 11566,6878.132,94.616,500.836,499.158,0.0
